( pcb2gcode 2.5.0 )
( Software-independent Gcode )

( This file uses 2 drill bit sizes. )
( Bit sizes: [0.3mm] [1mm] )

G94       (Millimeters per minute feed rate.)
G21       (Units == Millimeters.)
G90       (Absolute coordinates.)
G00 S12000     (RPM spindle speed.)

G00 Z6.00000 (Retract)
T1
M5      (Spindle stop.)
G04 P1.00000
(MSG, Change tool bit to drill size 0.3mm)
M0      (Temporary machine stop.)
M3      (Spindle on clockwise.)
G0 Z4.00000
G04 P1.00000

G1 F30.00000
G0 X32.52400 Y34.80500
G1 Z-1.40000
G1 Z4.00000
G0 X32.52400 Y37.30500
G1 Z-1.40000
G1 Z4.00000
G0 X43.25500 Y34.80500
G1 Z-1.40000
G1 Z4.00000
G0 X43.25500 Y37.30500
G1 Z-1.40000
G1 Z4.00000
G0 X54.93100 Y26.75200
G1 Z-1.40000
G1 Z4.00000
G0 X52.25500 Y26.69400
G1 Z-1.40000
G1 Z4.00000
G0 X47.50500 Y30.05300
G1 Z-1.40000
G1 Z4.00000
G0 X44.52500 Y30.07500
G1 Z-1.40000
G1 Z4.00000
G0 X43.25500 Y27.30500
G1 Z-1.40000
G1 Z4.00000
G0 X41.25500 Y27.30500
G1 Z-1.40000
G1 Z4.00000
G0 X43.25500 Y22.80500
G1 Z-1.40000
G1 Z4.00000
G0 X41.25500 Y17.30500
G1 Z-1.40000
G1 Z4.00000
G0 X52.25500 Y14.30500
G1 Z-1.40000
G1 Z4.00000
G0 X55.75500 Y14.30500
G1 Z-1.40000
G1 Z4.00000
G0 X63.19900 Y3.56900
G1 Z-1.40000
G1 Z4.00000
G0 X64.52500 Y3.52500
G1 Z-1.40000
G1 Z4.00000
G0 X65.92300 Y3.48100
G1 Z-1.40000
G1 Z4.00000
G0 X67.34000 Y3.48100
G1 Z-1.40000
G1 Z4.00000
G0 X68.66900 Y3.54700
G1 Z-1.40000
G1 Z4.00000
G0 X79.02500 Y15.50500
G1 Z-1.40000
G1 Z4.00000
G0 X79.03500 Y18.08500
G1 Z-1.40000
G1 Z4.00000
G0 X82.52500 Y18.02500
G1 Z-1.40000
G1 Z4.00000
G0 X87.52500 Y19.52500
G1 Z-1.40000
G1 Z4.00000
G0 X83.52500 Y22.52500
G1 Z-1.40000
G1 Z4.00000
G0 X82.52500 Y22.52500
G1 Z-1.40000
G1 Z4.00000
G0 X84.52500 Y22.52500
G1 Z-1.40000
G1 Z4.00000
G0 X85.52500 Y22.52500
G1 Z-1.40000
G1 Z4.00000
G0 X87.52500 Y25.02500
G1 Z-1.40000
G1 Z4.00000
G0 X85.91400 Y26.41400
G1 Z-1.40000
G1 Z4.00000
G0 X84.75000 Y27.25000
G1 Z-1.40000
G1 Z4.00000
G0 X83.52500 Y28.02500
G1 Z-1.40000
G1 Z4.00000
G0 X82.24700 Y26.80300
G1 Z-1.40000
G1 Z4.00000
G0 X79.25500 Y33.30500
G1 Z-1.40000
G1 Z4.00000
G0 X79.25500 Y37.30500
G1 Z-1.40000
G1 Z4.00000
G0 X99.52500 Y22.52500
G1 Z-1.40000
G1 Z4.00000
G0 X105.02500 Y22.52500
G1 Z-1.40000
G1 Z4.00000

G00 Z6.00000 (Retract)
T2
M5      (Spindle stop.)
G04 P1.00000
(MSG, Change tool bit to drill size 1mm)
M0      (Temporary machine stop.)
M3      (Spindle on clockwise.)
G0 Z4.00000
G04 P1.00000

G1 F30.00000
G0 X4.29400 Y16.98700
G1 Z-1.40000
G1 Z4.00000
G0 X4.22000 Y21.95800
G1 Z-1.40000
G1 Z4.00000
G0 X4.29400 Y30.98700
G1 Z-1.40000
G1 Z4.00000
G0 X4.22000 Y35.95800
G1 Z-1.40000
G1 Z4.00000
G0 X16.79600 Y35.90900
G1 Z-1.40000
G1 Z4.00000
G0 X16.79400 Y31.02500
G1 Z-1.40000
G1 Z4.00000
G0 X19.72000 Y29.45800
G1 Z-1.40000
G1 Z4.00000
G0 X19.79400 Y24.48700
G1 Z-1.40000
G1 Z4.00000
G0 X16.79600 Y21.90900
G1 Z-1.40000
G1 Z4.00000
G0 X16.79400 Y17.02500
G1 Z-1.40000
G1 Z4.00000
G0 X19.72000 Y15.45800
G1 Z-1.40000
G1 Z4.00000
G0 X19.79400 Y10.48700
G1 Z-1.40000
G1 Z4.00000
G0 X32.29400 Y10.52500
G1 Z-1.40000
G1 Z4.00000
G0 X32.29600 Y15.40900
G1 Z-1.40000
G1 Z4.00000
G0 X32.29400 Y24.52500
G1 Z-1.40000
G1 Z4.00000
G0 X32.29600 Y29.40900
G1 Z-1.40000
G1 Z4.00000
G0 X87.62000 Y30.52000
G1 Z-1.40000
G1 Z4.00000
G0 X90.16000 Y30.52000
G1 Z-1.40000
G1 Z4.00000
G0 X99.08000 Y30.52000
G1 Z-1.40000
G1 Z4.00000
G0 X101.62000 Y30.52000
G1 Z-1.40000
G1 Z4.00000
G0 X87.62000 Y7.52000
G1 Z-1.40000
G1 Z4.00000
G0 X101.62000 Y7.52000
G1 Z-1.40000
G1 Z4.00000

G00 Z6.000 ( All done -- retract )

M5      (Spindle off.)
G04 P1.000000
M9      (Coolant off.)
M2      (Program end.)

