( pcb2gcode 2.5.0 )
( Software-independent Gcode )

G94 ( Millimeters per minute feed rate. )
G21 ( Units == Millimeters. )

G90 ( Absolute coordinates. )
G00 S12000 ( RPM spindle speed. )
G01 F30.00000 ( Feedrate. )


G00 Z6.00000 (Retract to tool change height)
T0
M5      (Spindle stop.)
G04 P1.00000 (Wait for spindle to stop)
(MSG, Change tool bit to cutter diameter 2.00000mm)
M0      (Temporary machine stop.)
M3 ( Spindle on clockwise. )
G04 P1.00000 (Wait for spindle to get up to speed)
G04 P0 ( dwell for no time -- G64 should not smooth over this point )
G00 Z4.00000 ( retract )

G00 X1.02501 Y2.02501 ( rapid move to begin. )
G01 Z-0.70000 F15.00000 ( plunge. )
G04 P0 ( dwell for no time -- G64 should not smooth over this point )
G01 F30.00000
G01 X1.02501 Y40.52501
G01 X1.04424 Y40.72010
G01 X1.10113 Y40.90771
G01 X1.19356 Y41.08058
G01 X1.31792 Y41.23212
G01 X1.46946 Y41.35650
G01 X1.64233 Y41.44890
G01 X1.82994 Y41.50580
G01 X2.02501 Y41.52503
G01 X119.52498 Y41.52503
G01 X119.72005 Y41.50580
G01 X119.90765 Y41.44890
G01 X120.08052 Y41.35650
G01 X120.23206 Y41.23212
G01 X120.35644 Y41.08058
G01 X120.44885 Y40.90771
G01 X120.50575 Y40.72010
G01 X120.52497 Y40.52501
G01 X120.52497 Y2.02501
G01 X120.50575 Y1.82993
G01 X120.44885 Y1.64233
G01 X120.35644 Y1.46946
G01 X120.23206 Y1.31792
G01 X120.08052 Y1.19354
G01 X119.90765 Y1.10113
G01 X119.72005 Y1.04424
G01 X119.52498 Y1.02501
G01 X2.02501 Y1.02501
G01 X1.82994 Y1.04424
G01 X1.64233 Y1.10113
G01 X1.46946 Y1.19354
G01 X1.31792 Y1.31792
G01 X1.19356 Y1.46946
G01 X1.10113 Y1.64233
G01 X1.04424 Y1.82993
G01 X1.02501 Y2.02501
G01 Z-1.40000 F15.00000 ( plunge. )
G04 P0 ( dwell for no time -- G64 should not smooth over this point )
G01 F30.00000
G01 X1.02501 Y40.52501
G01 X1.04424 Y40.72010
G01 X1.10113 Y40.90771
G01 X1.19356 Y41.08058
G01 X1.31792 Y41.23212
G01 X1.46946 Y41.35650
G01 X1.64233 Y41.44890
G01 X1.82994 Y41.50580
G01 X2.02501 Y41.52503
G01 X119.52498 Y41.52503
G01 X119.72005 Y41.50580
G01 X119.90765 Y41.44890
G01 X120.08052 Y41.35650
G01 X120.23206 Y41.23212
G01 X120.35644 Y41.08058
G01 X120.44885 Y40.90771
G01 X120.50575 Y40.72010
G01 X120.52497 Y40.52501
G01 X120.52497 Y2.02501
G01 X120.50575 Y1.82993
G01 X120.44885 Y1.64233
G01 X120.35644 Y1.46946
G01 X120.23206 Y1.31792
G01 X120.08052 Y1.19354
G01 X119.90765 Y1.10113
G01 X119.72005 Y1.04424
G01 X119.52498 Y1.02501
G01 X2.02501 Y1.02501
G01 X1.82994 Y1.04424
G01 X1.64233 Y1.10113
G01 X1.46946 Y1.19354
G01 X1.31792 Y1.31792
G01 X1.19356 Y1.46946
G01 X1.10113 Y1.64233
G01 X1.04424 Y1.82993
G01 X1.02501 Y2.02501

G04 P0 ( dwell for no time -- G64 should not smooth over this point )
G00 Z6.000000 ( retract )

M5 ( Spindle off. )
G04 P1.000000
M9 ( Coolant off. )
M2 ( Program end. )

